GLOBALSTAR M075         
1 37192U 10054E   24278.15151851 -.00000065  00000+0  21396-3 0  9997
2 37192  51.9936 241.1103 0000481  79.0870 294.5076 12.62285363644042
GLOBALSTAR M073         
1 37193U 10054F   24277.91400622 -.00000067  00000+0  20429-3 0  9992
2 37193  52.0047 155.4574 0000866  88.1144 285.4749 12.62270421645528
GLOBALSTAR M083         
1 37739U 11033A   24277.86877903 -.00000056  00000+0  26542-3 0  9990
2 37739  51.9837 104.6745 0000962  78.4998  30.1710 12.62265772614488
GLOBALSTAR M088         
1 37740U 11033B   24277.58386492 -.00000096  00000+0  41719-4 0  9997
2 37740  51.9775  11.2493 0000647  93.6839 280.7765 12.62262453610287
GLOBALSTAR M091         
1 37741U 11033C   24277.86985833 -.00000063  00000+0  22806-3 0  9992
2 37741  52.0014 333.4792 0000637  74.5630  98.0454 12.62267844610816
GLOBALSTAR M085         
1 37742U 11033D   24277.77724634 -.00000082  00000+0  12032-3 0  9994
2 37742  51.9858 285.0248 0000566  58.8894 113.9718 12.62266722611317
GLOBALSTAR M081         
1 37743U 11033E   24277.80316655 -.00000072  00000+0  17514-3 0  9998
2 37743  51.9951 287.5740 0000677  81.2117  89.6315 12.62270364611462
GLOBALSTAR M089         
1 37744U 11033F   24277.68482899 -.00000084  00000+0  10923-3 0  9999
2 37744  51.9919 242.2113 0000471 109.0413  62.1676 12.62269842612296
